ECHOSTAR 25             
1 68126U 26045A   26098.21517403  .00000060  00000+0  00000+0 0  9992
2 68126   0.0272 285.5269 0001997 154.2995  65.2537  1.00272114   291
ICOR SV                 
1 68127U 26046A   26097.51674506  .00592369  12403-4  56533-3 0  9993
2 68127 123.0697 338.3484 0078841 244.0382 115.2559 16.04698384  4199
GUOWANG GROUP 20 OBJECT*
1 68129U 26047A   26097.64802928 -.00000105  00000+0  36100-4 0  9998
2 68129  50.0035 313.9561 0000960 153.4793 206.6149 13.77396853  3616
GUOWANG GROUP 20 OBJECT*
1 68130U 26047B   26097.49881988 -.00000077  00000+0  63564-4 0  9998
2 68130  50.0045 314.5004 0000353 221.7043 138.3823 13.78211692  3585
GUOWANG GROUP 20 OBJECT*
1 68131U 26047C   26097.42289306 -.00000105  00000+0  36228-4 0  9997
2 68131  50.0012 314.7571 0000600 280.7634  79.3192 13.78348464  3588
GUOWANG GROUP 20 OBJECT*
1 68132U 26047D   26097.41937973 -.00000096  00000+0  44823-4 0  9996
2 68132  50.0066 314.7512 0000825 259.3867 100.6934 13.78557550  3571
GUOWANG GROUP 20 OBJECT*
1 68133U 26047E   26097.05319087 -.00000113  00000+0  28148-4 0  9999
2 68133  49.9979 316.1391 0001852 220.6312 139.4444 13.78823550  3538
GUOWANG GROUP 20 OBJECT*
1 68134U 26047F   26097.62631822 -.00000060  00000+0  79849-4 0  9992
2 68134  50.0071 313.8494 0000891 181.7081 178.3810 13.78751368  3609
GUOWANG GROUP 20 OBJECT*
1 68135U 26047G   26097.70215388 -.00000030  00000+0  11027-3 0  9997
2 68135  50.0062 313.5754 0003657 179.8732 180.2163 13.78265401  3623
GUOWANG GROUP 20 OBJECT*
1 68136U 26047H   26096.82598167 -.00000100  00000+0  40198-4 0  9999
2 68136  50.0092 316.9194 0005081 346.1524  13.9231 13.80114638  3494
GUOWANG GROUP 20 OBJECT*
1 68137U 26047J   26096.96736006 -.00000122  00000+0  19700-4 0  9990
2 68137  50.0088 316.3637 0001136   7.4790 352.6121 13.79863034  3529
SHIYAN-30 03            
1 68139U 26048A   26098.08705797  .00002308  00000+0  22719-3 0  9991
2 68139  35.0010 327.8991 0002485 107.5315 252.5662 14.91796769  3895
SHIYAN-30 04            
1 68140U 26048B   26098.08775729  .00002191  00000+0  21579-3 0  9998
2 68140  34.9924 327.8942 0001093 130.1071 229.9729 14.91793558  3895
